NORAD_CAT_ID,OBJECT_NAME,OBJECT_TYPE,EPOCH,MEAN_MOTION,ECCENTRICITY,INCLINATION,RA_OF_ASC_NODE,ARG_OF_PERICENTER,MEAN_ANOMALY,BSTAR,MEAN_MOTION_DOT,MEAN_MOTION_DDOT,TLE_LINE0,TLE_LINE1,TLE_LINE2,SEMIMAJOR_AXIS,PERIOD,APOGEE,PERIGEE,DECAYED
52353.0,STARLINK-3807,PAYLOAD,2024-08-20 04:58:49,15.08836858,0.0001396,53.2154,222.1583,92.7887,267.3265,5.2149e-05,5.42e-06,0.0,0 STARLINK-3807,1 52353U 22045Y   24233.20751880  .00000542  00000-0  52149-4 0  9992,2 52353  53.2154 222.1583 0001396  92.7887 267.3265 15.08836858130268,6917.89,95.438,540.721,538.789,0.0
52353.0,STARLINK-3807,PAYLOAD,2024-08-20 06:34:12,15.08838056,0.000139,53.2154,221.8611,93.3635,266.7516,5.8383e-05,6.41e-06,0.0,0 STARLINK-3807,1 52353U 22045Y   24233.27375783  .00000641  00000-0  58383-4 0  9999,2 52353  53.2154 221.8611 0001390  93.3635 266.7516 15.08838056130273,6917.886,95.438,540.713,538.79,0.0
52353.0,STARLINK-3807,PAYLOAD,2024-08-21 06:24:59,15.08841194,0.0001381,53.2154,217.4005,92.2787,267.8364,0.00012483,1.699e-05,0.0,0 STARLINK-3807,1 52353U 22045Y   24234.26735601  .00001699  00000-0  12483-3 0  9992,2 52353  53.2154 217.4005 0001381  92.2787 267.8364 15.08841194130424,6917.877,95.437,540.697,538.786,0.0
